TOKI                    
1 42820U 98067MU  18063.73244649  .00018140  00000-0  19833-3 0  9994
2 42820  51.6366 170.6692 0002394 118.2364 241.8872 15.63382444 37517
MAZAALAI (NUMSAT-1)     
1 42822U 98067MW  18063.75060043  .00018543  00000-0  20407-3 0  9998
2 42822  51.6366 170.7932 0002331 124.9890 235.1323 15.63196588 37492
BRAC ONNESHA            
1 42823U 98067MX  18063.75129402  .00018947  00000-0  20795-3 0  9992
2 42823  51.6372 170.8088 0004804 154.0447 206.0789 15.63243145 37497
NIGERIAEDUSAT-1         
1 42824U 98067MY  18063.70071546  .00018735  00000-0  20675-3 0  9995
2 42824  51.6378 171.2308 0004707 153.9727 206.1504 15.63110944 37457
SILU-1 (SILKROAD 1)     
1 42903U 17021F   18063.98023101  .00017611  00000-0  16370-3 0  9997
2 42903  42.7781 237.2925 0011513 288.0297 211.5068 15.67010889 33550
MIRATA                  
1 43015U 17073C   18063.76123920  .00000902  00000-0  77766-4 0  9997
2 43015  97.6984 359.2282 0257671 251.3956 105.9115 14.77856276 15717
ASTERIA                 
1 43020U 98067NH  18064.56230595  .00010776  00000-0  15373-3 0  9996
2 43020  51.6402 174.0012 0002458 134.8471 225.2721 15.56863175 16332
DELLINGR (RBLE)         
1 43021U 98067NJ  18064.52675275  .00004711  00000-0  73146-4 0  9996
2 43021  51.6397 174.5093 0002351 133.3692 226.7496 15.56062345 16325
TECHEDSAT 6             
1 43026U 98067NK  18064.55048098  .00083086  00000-0  75068-3 0  9997
2 43026  51.6355 170.1495 0002479 311.7001  48.3783 15.67391523 16286
OSIRIS-3U               
1 43027U 98067NL  18064.48466806  .00019153  00000-0  24700-3 0  9992
2 43027  51.6386 173.4781 0002588 112.9227 247.2039 15.59021498 16216
AEROCUBE 7B             
1 43042U 17071F   18064.19180509  .00002895  00000-0  86321-4 0  9999
2 43042  51.6390 187.8870 0004999 247.5716 112.4739 15.38100922 13597
AEROCUBE 7C             
1 43043U 17071G   18063.80146302  .00002264  00000-0  69724-4 0  9998
2 43043  51.6392 189.7819 0004904 245.2594 114.7880 15.38118337 13501
CHEFSAT                 
1 43044U 17071H   18063.85490908  .00005275  00000-0  14672-3 0  9994
2 43044  51.6395 189.3925 0004976 241.8626 118.1855 15.38516998 13512
ASGARDIA 1              
1 43049U 17071N   18063.79191933  .00002606  00000-0  78291-4 0  9991
2 43049  51.6393 189.7208 0002232 265.8833  94.1896 15.38277376 13503
ISARA                   
1 43050U 17071P   18063.78595921  .00004302  00000-0  12160-3 0  9994
2 43050  51.6394 189.6846 0002278 260.0701 100.0026 15.38507972 13492
FAUNA                   
1 43052U 17071R   18063.78802827  .00002875  00000-0  85050-4 0  9994
2 43052  51.6396 189.6983 0002177 260.1603  99.9135 15.38365860 13493
MICROMAS-2A             
1 43132U 18004X   18063.74037886  .00001204  00000-0  55282-4 0  9990
2 43132  97.5473 126.0872 0011731 103.0089 257.2457 15.22332263  7828
